[
  {
    "OBJECT_NAME": "STARLINK-4274",
    "OBJECT_ID": "2022-062AM",
    "EPOCH": "2025-06-07T08:40:43.319136",
    "MEAN_MOTION": 15.08835811,
    "ECCENTRICITY": 0.0001198,
    "INCLINATION": 53.2154,
    "RA_OF_ASC_NODE": 180.1134,
    "ARG_OF_PERICENTER": 73.3009,
    "MEAN_ANOMALY": 286.8114,
    "EPHEMERIS_TYPE": 0,
    "CLASSIFICATION_TYPE": "U",
    "NORAD_CAT_ID": 52865,
    "ELEMENT_SET_NO": 999,
    "REV_AT_EPOCH": 16436,
    "BSTAR": -4.3094e-05,
    "MEAN_MOTION_DOT": -9.74e-06,
    "MEAN_MOTION_DDOT": 0
  },
  {
    "OBJECT_NAME": "STARLINK-4272",
    "OBJECT_ID": "2022-062AN",
    "EPOCH": "2025-06-07T10:26:41.991072",
    "MEAN_MOTION": 15.08839153,
    "ECCENTRICITY": 0.0001133,
    "INCLINATION": 53.2161,
    "RA_OF_ASC_NODE": 179.785,
    "ARG_OF_PERICENTER": 79.4702,
    "MEAN_ANOMALY": 280.6418,
    "EPHEMERIS_TYPE": 0,
    "CLASSIFICATION_TYPE": "U",
    "NORAD_CAT_ID": 52866,
    "ELEMENT_SET_NO": 999,
    "REV_AT_EPOCH": 16437,
    "BSTAR": 5.1246e-05,
    "MEAN_MOTION_DOT": 5.28e-06,
    "MEAN_MOTION_DDOT": 0
  },
  {
    "OBJECT_NAME": "STARLINK-4126",
    "OBJECT_ID": "2022-062AP",
    "EPOCH": "2025-06-07T11:40:53.721696",
    "MEAN_MOTION": 15.0883744,
    "ECCENTRICITY": 0.0001042,
    "INCLINATION": 53.2159,
    "RA_OF_ASC_NODE": 179.5536,
    "ARG_OF_PERICENTER": 76.8669,
    "MEAN_ANOMALY": 283.2439,
    "EPHEMERIS_TYPE": 0,
    "CLASSIFICATION_TYPE": "U",
    "NORAD_CAT_ID": 52867,
    "ELEMENT_SET_NO": 999,
    "REV_AT_EPOCH": 16438,
    "BSTAR": 3.4631e-06,
    "MEAN_MOTION_DOT": -2.33e-06,
    "MEAN_MOTION_DDOT": 0
  },
  {
    "OBJECT_NAME": "STARLINK-4261",
    "OBJECT_ID": "2022-062AQ",
    "EPOCH": "2025-06-07T11:56:50.027136",
    "MEAN_MOTION": 15.08813891,
    "ECCENTRICITY": 0.000104,
    "INCLINATION": 53.2165,
    "RA_OF_ASC_NODE": 179.5343,
    "ARG_OF_PERICENTER": 90.1656,
    "MEAN_ANOMALY": 269.9455,
    "EPHEMERIS_TYPE": 0,
    "CLASSIFICATION_TYPE": "U",
    "NORAD_CAT_ID": 52868,
    "ELEMENT_SET_NO": 999,
    "REV_AT_EPOCH": 16438,
    "BSTAR": -0.00013496,
    "MEAN_MOTION_DOT": -2.433e-05,
    "MEAN_MOTION_DDOT": 0
  },
  {
    "OBJECT_NAME": "STARLINK-4266",
    "OBJECT_ID": "2022-062AR",
    "EPOCH": "2025-06-07T09:56:14.041824",
    "MEAN_MOTION": 15.08837528,
    "ECCENTRICITY": 9.54e-05,
    "INCLINATION": 53.2158,
    "RA_OF_ASC_NODE": 169.8797,
    "ARG_OF_PERICENTER": 82.9989,
    "MEAN_ANOMALY": 277.1112,
    "EPHEMERIS_TYPE": 0,
    "CLASSIFICATION_TYPE": "U",
    "NORAD_CAT_ID": 52869,
    "ELEMENT_SET_NO": 999,
    "REV_AT_EPOCH": 16450,
    "BSTAR": 4.3045e-05,
    "MEAN_MOTION_DOT": 3.97e-06,
    "MEAN_MOTION_DDOT": 0
  },
  {
    "OBJECT_NAME": "STARLINK-4195",
    "OBJECT_ID": "2022-062AS",
    "EPOCH": "2025-06-07T18:07:44.000832",
    "MEAN_MOTION": 15.08836479,
    "ECCENTRICITY": 0.0001029,
    "INCLINATION": 53.2158,
    "RA_OF_ASC_NODE": 178.3462,
    "ARG_OF_PERICENTER": 81.3048,
    "MEAN_ANOMALY": 278.8061,
    "EPHEMERIS_TYPE": 0,
    "CLASSIFICATION_TYPE": "U",
    "NORAD_CAT_ID": 52870,
    "ELEMENT_SET_NO": 999,
    "REV_AT_EPOCH": 16491,
    "BSTAR": 6.7967e-06,
    "MEAN_MOTION_DOT": -1.8e-06,
    "MEAN_MOTION_DDOT": 0
  },
  {
    "OBJECT_NAME": "STARLINK-4207",
    "OBJECT_ID": "2022-062AT",
    "EPOCH": "2025-06-07T11:15:43.063488",
    "MEAN_MOTION": 15.08837082,
    "ECCENTRICITY": 0.0001185,
    "INCLINATION": 53.2156,
    "RA_OF_ASC_NODE": 169.6314,
    "ARG_OF_PERICENTER": 65.8096,
    "MEAN_ANOMALY": 294.3019,
    "EPHEMERIS_TYPE": 0,
    "CLASSIFICATION_TYPE": "U",
    "NORAD_CAT_ID": 52871,
    "ELEMENT_SET_NO": 999,
    "REV_AT_EPOCH": 16451,
    "BSTAR": 2.3142e-05,
    "MEAN_MOTION_DOT": 8e-07,
    "MEAN_MOTION_DDOT": 0
  },
  {
    "OBJECT_NAME": "STARLINK-4213",
    "OBJECT_ID": "2022-062AU",
    "EPOCH": "2025-06-07T17:43:56.211456",
    "MEAN_MOTION": 15.0883609,
    "ECCENTRICITY": 0.0001061,
    "INCLINATION": 53.2158,
    "RA_OF_ASC_NODE": 168.3933,
    "ARG_OF_PERICENTER": 77.6191,
    "MEAN_ANOMALY": 282.492,
    "EPHEMERIS_TYPE": 0,
    "CLASSIFICATION_TYPE": "U",
    "NORAD_CAT_ID": 52872,
    "ELEMENT_SET_NO": 999,
    "REV_AT_EPOCH": 16504,
    "BSTAR": 2.8257e-05,
    "MEAN_MOTION_DOT": 1.62e-06,
    "MEAN_MOTION_DDOT": 0
  },
  {
    "OBJECT_NAME": "STARLINK-4211",
    "OBJECT_ID": "2022-062AV",
    "EPOCH": "2025-06-07T11:05:07.542240",
    "MEAN_MOTION": 15.08837008,
    "ECCENTRICITY": 0.0001205,
    "INCLINATION": 53.2159,
    "RA_OF_ASC_NODE": 169.6646,
    "ARG_OF_PERICENTER": 80.4115,
    "MEAN_ANOMALY": 279.7013,
    "EPHEMERIS_TYPE": 0,
    "CLASSIFICATION_TYPE": "U",
    "NORAD_CAT_ID": 52873,
    "ELEMENT_SET_NO": 999,
    "REV_AT_EPOCH": 16451,
    "BSTAR": -2.4379e-05,
    "MEAN_MOTION_DOT": -6.76e-06,
    "MEAN_MOTION_DDOT": 0
  },
  {
    "OBJECT_NAME": "STARLINK-4210",
    "OBJECT_ID": "2022-062AW",
    "EPOCH": "2025-06-07T09:45:38.307168",
    "MEAN_MOTION": 15.08834306,
    "ECCENTRICITY": 8.24e-05,
    "INCLINATION": 53.216,
    "RA_OF_ASC_NODE": 169.9137,
    "ARG_OF_PERICENTER": 83.5731,
    "MEAN_ANOMALY": 276.5355,
    "EPHEMERIS_TYPE": 0,
    "CLASSIFICATION_TYPE": "U",
    "NORAD_CAT_ID": 52874,
    "ELEMENT_SET_NO": 999,
    "REV_AT_EPOCH": 16450,
    "BSTAR": 1.6352e-05,
    "MEAN_MOTION_DOT": -2.7e-07,
    "MEAN_MOTION_DDOT": 0
  },
  {
    "OBJECT_NAME": "STARLINK-4193",
    "OBJECT_ID": "2022-062AX",
    "EPOCH": "2025-06-06T23:52:07.326336",
    "MEAN_MOTION": 15.08836269,
    "ECCENTRICITY": 9.87e-05,
    "INCLINATION": 53.2161,
    "RA_OF_ASC_NODE": 171.763,
    "ARG_OF_PERICENTER": 72.0709,
    "MEAN_ANOMALY": 288.039,
    "EPHEMERIS_TYPE": 0,
    "CLASSIFICATION_TYPE": "U",
    "NORAD_CAT_ID": 52875,
    "ELEMENT_SET_NO": 999,
    "REV_AT_EPOCH": 16444,
    "BSTAR": 9.6532e-05,
    "MEAN_MOTION_DOT": 1.249e-05,
    "MEAN_MOTION_DDOT": 0
  },
  {
    "OBJECT_NAME": "STARLINK-4200",
    "OBJECT_ID": "2022-062AY",
    "EPOCH": "2025-06-07T07:59:38.462784",
    "MEAN_MOTION": 15.08840637,
    "ECCENTRICITY": 0.0001288,
    "INCLINATION": 53.2161,
    "RA_OF_ASC_NODE": 170.2424,
    "ARG_OF_PERICENTER": 84.5166,
    "MEAN_ANOMALY": 275.5973,
    "EPHEMERIS_TYPE": 0,
    "CLASSIFICATION_TYPE": "U",
    "NORAD_CAT_ID": 52876,
    "ELEMENT_SET_NO": 999,
    "REV_AT_EPOCH": 16449,
    "BSTAR": -0.00017868,
    "MEAN_MOTION_DOT": -3.13e-05,
    "MEAN_MOTION_DDOT": 0
  },
  {
    "OBJECT_NAME": "STARLINK-4214",
    "OBJECT_ID": "2022-062AZ",
    "EPOCH": "2025-06-06T18:28:52.367520",
    "MEAN_MOTION": 15.08839079,
    "ECCENTRICITY": 0.0001186,
    "INCLINATION": 53.2158,
    "RA_OF_ASC_NODE": 172.7802,
    "ARG_OF_PERICENTER": 86.3332,
    "MEAN_ANOMALY": 273.7796,
    "EPHEMERIS_TYPE": 0,
    "CLASSIFICATION_TYPE": "U",
    "NORAD_CAT_ID": 52877,
    "ELEMENT_SET_NO": 999,
    "REV_AT_EPOCH": 16441,
    "BSTAR": 5.0098e-05,
    "MEAN_MOTION_DOT": 5.1e-06,
    "MEAN_MOTION_DDOT": 0
  },
  {
    "OBJECT_NAME": "STARLINK-4171",
    "OBJECT_ID": "2022-062BA",
    "EPOCH": "2025-06-07T17:16:05.281248",
    "MEAN_MOTION": 15.0883878,
    "ECCENTRICITY": 0.0001229,
    "INCLINATION": 53.2164,
    "RA_OF_ASC_NODE": 168.508,
    "ARG_OF_PERICENTER": 63.903,
    "MEAN_ANOMALY": 296.2088,
    "EPHEMERIS_TYPE": 0,
    "CLASSIFICATION_TYPE": "U",
    "NORAD_CAT_ID": 52878,
    "ELEMENT_SET_NO": 999,
    "REV_AT_EPOCH": 16504,
    "BSTAR": 7.3245e-05,
    "MEAN_MOTION_DOT": 8.78e-06,
    "MEAN_MOTION_DDOT": 0
  }
]