52865,STARLINK-4274,2022,95.44,260.0,+,53.22,Active,1,LEO,USA,USA,Commercial,Communications,Falcon,1 52865U 22062AM  25158.36161249 -.00000974  00000+0 -43094-4 0  9996,2 52865  53.2154 180.1134 0001198  73.3009 286.8114 15.08835811164367,15.08835811,0.0001198,LEO
52866,STARLINK-4272,2022,95.44,260.0,+,53.22,Active,1,LEO,USA,USA,Commercial,Communications,Falcon,1 52866U 22062AN  25158.43520823  .00000528  00000+0  51246-4 0  9993,2 52866  53.2161 179.7850 0001133  79.4702 280.6418 15.08839153164374,15.08839153,0.0001133,LEO
52867,STARLINK-4126,2022,95.44,260.0,+,53.22,Active,1,LEO,USA,USA,Commercial,Communications,Falcon,1 52867U 22062AP  25158.48673289 -.00000233  00000+0  34631-5 0  9998,2 52867  53.2159 179.5536 0001042  76.8669 283.2439 15.08837440164383,15.0883744,0.0001042,LEO
52868,STARLINK-4261,2022,95.44,260.0,+,53.22,Active,1,LEO,USA,USA,Commercial,Communications,Falcon,1 52868U 22062AQ  25158.49780124 -.00002433  00000+0 -13496-3 0  9996,2 52868  53.2165 179.5343 0001040  90.1656 269.9455 15.08813891164383,15.08813891,0.000104,LEO
52869,STARLINK-4266,2022,95.44,260.0,+,53.22,Active,1,LEO,USA,USA,Commercial,Communications,Falcon,1 52869U 22062AR  25158.41405141  .00000397  00000+0  43045-4 0  9991,2 52869  53.2158 169.8797 0000954  82.9989 277.1112 15.08837528164500,15.08837528,9.54e-05,LEO
52870,STARLINK-4195,2022,95.44,260.0,+,53.22,Active,1,LEO,USA,USA,Commercial,Communications,Falcon,1 52870U 22062AS  25158.75537038 -.00000180  00000+0  67967-5 0  9992,2 52870  53.2158 178.3462 0001029  81.3048 278.8061 15.08836479164919,15.08836479,0.0001029,LEO
52871,STARLINK-4207,2022,95.44,260.0,+,53.22,Active,1,LEO,USA,USA,Commercial,Communications,Falcon,1 52871U 22062AT  25158.46924842  .00000080  00000+0  23142-4 0  9998,2 52871  53.2156 169.6314 0001185  65.8096 294.3019 15.08837082164513,15.08837082,0.0001185,LEO
52872,STARLINK-4213,2022,95.44,260.0,+,53.22,Active,1,LEO,USA,USA,Commercial,Communications,Falcon,1 52872U 22062AU  25158.73884504  .00000162  00000+0  28257-4 0  9992,2 52872  53.2158 168.3933 0001061  77.6191 282.4920 15.08836090165045,15.0883609,0.0001061,LEO
52873,STARLINK-4211,2022,95.44,260.0,+,53.22,Active,1,LEO,USA,USA,Commercial,Communications,Falcon,1 52873U 22062AV  25158.46189285 -.00000676  00000+0 -24379-4 0  9990,2 52873  53.2159 169.6646 0001205  80.4115 279.7013 15.08837008164513,15.08837008,0.0001205,LEO
52874,STARLINK-4210,2022,95.44,260.0,+,53.22,Active,1,LEO,USA,USA,Commercial,Communications,Falcon,1 52874U 22062AW  25158.40669337 -.00000027  00000+0  16352-4 0  9997,2 52874  53.2160 169.9137 0000824  83.5731 276.5355 15.08834306164509,15.08834306,8.24e-05,LEO
52875,STARLINK-4193,2022,95.44,260.0,+,53.22,Active,1,LEO,USA,USA,Commercial,Communications,Falcon,1 52875U 22062AX  25157.99452924  .00001249  00000+0  96532-4 0  9997,2 52875  53.2161 171.7630 0000987  72.0709 288.0390 15.08836269164448,15.08836269,9.87e-05,LEO
52876,STARLINK-4200,2022,95.44,260.0,+,53.22,Active,1,LEO,USA,USA,Commercial,Communications,Falcon,1 52876U 22062AY  25158.33308406 -.00003130  00000+0 -17868-3 0  9999,2 52876  53.2161 170.2424 0001288  84.5166 275.5973 15.08840637164491,15.08840637,0.0001288,LEO
52877,STARLINK-4214,2022,95.44,260.0,+,53.22,Active,1,LEO,USA,USA,Commercial,Communications,Falcon,1 52877U 22062AZ  25157.77005055  .00000510  00000+0  50098-4 0  9991,2 52877  53.2158 172.7802 0001186  86.3332 273.7796 15.08839079164410,15.08839079,0.0001186,LEO
52878,STARLINK-4171,2022,95.44,260.0,+,53.21,Active,1,LEO,USA,USA,Commercial,Communications,Falcon,1 52878U 22062BA  25158.71950557  .00000878  00000+0  73245-4 0  9999,2 52878  53.2164 168.5080 0001229  63.9030 296.2088 15.08838780165045,15.0883878,0.0001229,LEO
